<?xml version="1.0" encoding="utf-8"?>
<kml>
  <Document>
    <name>Geofences</name>
    <Placemark>
      <name>Маршрут Ташуджу - Аккую</name>
      <description>Контрольный маршрут Ташуджу - Аккую</description>
      <Style>
        <LineStyle><color>99307b19</color><width>50.0</width></LineStyle>
        <PolyStyle><color>99307b19</color></PolyStyle>
      </Style>
      <Polygon>
        <outerBoundaryIs>
          <LinearRing>
            <coordinates>33.8796062469,36.3034964698,0 33.9106769562,36.3185741327,0 33.8996906280,36.3397332721,0 33.8737697601,36.3264576209,0 33.7791843414,36.2615680181,0 33.7228794098,36.2311108061,0 33.6675186157,36.2195478026,0 33.5816879272,36.1818696393,0 33.5624618530,36.1746643964,0 33.5624618530,36.1646868123,0 33.5724182129,36.1599747338,0 33.5844345093,36.1599747338,0 33.6427993774,36.1824238613,0 33.6534423828,36.1757729384,0 33.6764450073,36.1899054747,0 33.6740417480,36.2076368144,0 33.7313766479,36.2206557093,0 33.7938613891,36.2497326481,0 33.8796062469,36.3034964698,0</coordinates>
          </LinearRing>
        </outerBoundaryIs>
      </Polygon>
    </Placemark>
  </Document>
</kml>
